ONEWEB-0037             
1 45440U 20020S   23234.49031418  .00000229  00000+0  60915-3 0  9991
2 45440  87.8897 225.5701 0001850  87.7790 272.3550 13.11419901167749
ONEWEB-0042             
1 45441U 20020T   23234.47335674 -.00000436  00000+0 -12663-2 0  9999
2 45441  87.8893 225.5849 0001774  90.3104 269.8227 13.11419655167718
ONEWEB-0098             
1 45442U 20020U   23234.03466483  .00000280  00000+0  75336-3 0  9997
2 45442  87.8899 225.6826 0002240  92.3813 267.7571 13.11418167167625
ONEWEB-0055             
1 45443U 20020V   23235.01273606 -.00000319  00000+0 -93647-3 0  9990
2 45443  87.8901 225.4922 0002098  89.7536 270.3833 13.11419391167731
ONEWEB-0093             
1 45444U 20020W   23235.06254423  .00000040  00000+0  78395-4 0  9995
2 45444  87.8891 225.4701 0002167  97.9201 262.2173 13.11414525167801
ONEWEB-0029             
1 45445U 20020X   23235.00778302 -.00000505  00000+0 -14535-2 0  9999
2 45445  87.8899 225.4875 0001855  93.1692 266.9648 13.11821385167777
ONEWEB-0068             
1 45446U 20020Y   23235.05513016  .00000261  00000+0  70063-3 0  9990
2 45446  87.8892 225.4690 0002088  97.4397 262.6968 13.11414947167729
ONEWEB-0046             
1 45447U 20020Z   23235.05195572  .00000420  00000+0  11485-2 0  9993
2 45447  87.8892 225.4820 0001848  86.5260 273.6079 13.11415108167732
